start=new Date('2022-08-01T00:00:00.000Z').valueOf();
sats=[{"MEAN_MOTION_DDOT":"0.0000000000000","MEAN_MOTION":"15.06389399","MEAN_MOTION_DOT":"-0.00000424","BSTAR":"-0.00000957250000","LAUNCH_DATE":"2020-09-03","OBJECT_NAME":"STARLINK-1661","MEAN_ANOMALY":"290.9877","RA_OF_ASC_NODE":"168.1417","EPHEMERIS_TYPE":"0","ELEMENT_SET_NO":"999","PERIAPSIS":"546.036","FILE":"3526413","COUNTRY_CODE":"US","RCS_SIZE":"LARGE","TLE_LINE1":"1 46355U 20062AG  22212.85246188 -.00000424  00000-0 -95725-5 0  9999","REV_AT_EPOCH":"10583","TIME_SYSTEM":"UTC","PERIOD":"95.593","SITE":"AFETR","APOAPSIS":"548.456","NORAD_CAT_ID":"46355","ECCENTRICITY":"0.00017470","TLE_LINE2":"2 46355  53.0555 168.1417 0001747  69.1299 290.9877 15.06389399105833","SEMIMAJOR_AXIS":"6925.381","EPOCH":"2022-07-31T20:27:32.706432","GP_ID":"209293189","CLASSIFICATION_TYPE":"U","OBJECT_ID":"2020-062AG","MEAN_ELEMENT_THEORY":"SGP4","REF_FRAME":"TEME","ARG_OF_PERICENTER":"69.1299","DECAY_DATE":null,"INCLINATION":"53.0555","CENTER_NAME":"EARTH","OBJECT_TYPE":"PAYLOAD"},{"MEAN_MOTION_DOT":"0.00001456","RA_OF_ASC_NODE":"169.2691","EPHEMERIS_TYPE":"0","BSTAR":"0.00011661000000","LAUNCH_DATE":"2020-09-03","OBJECT_NAME":"STARLINK-1665","MEAN_ANOMALY":"289.0031","MEAN_MOTION":"15.06398250","MEAN_MOTION_DDOT":"0.0000000000000","REV_AT_EPOCH":"10579","APOAPSIS":"548.405","SITE":"AFETR","NORAD_CAT_ID":"46356","TIME_SYSTEM":"UTC","PERIOD":"95.592","PERIAPSIS":"546.033","ELEMENT_SET_NO":"999","TLE_LINE1":"1 46356U 20062AH  22212.59717115  .00001456  00000-0  11661-3 0  9993","FILE":"3526413","COUNTRY_CODE":"US","RCS_SIZE":"LARGE","GP_ID":"209293439","EPOCH":"2022-07-31T14:19:55.587360","CLASSIFICATION_TYPE":"U","OBJECT_ID":"2020-062AH","SEMIMAJOR_AXIS":"6925.354","TLE_LINE2":"2 46356  53.0558 169.2691 0001713  71.1143 289.0031 15.06398250105799","ECCENTRICITY":"0.00017130","OBJECT_TYPE":"PAYLOAD","ARG_OF_PERICENTER":"71.1143","MEAN_ELEMENT_THEORY":"SGP4","REF_FRAME":"TEME","INCLINATION":"53.0558","CENTER_NAME":"EARTH","DECAY_DATE":null},{"OBJECT_ID":"2020-062AJ","EPOCH":"2022-07-31T12:43:06.878208","GP_ID":"209269853","CLASSIFICATION_TYPE":"U","TLE_LINE2":"2 46357  53.0555 149.5709 0001843  64.3520 295.7659 15.06393480106246","SEMIMAJOR_AXIS":"6925.369","ECCENTRICITY":"0.00018430","OBJECT_TYPE":"PAYLOAD","INCLINATION":"53.0555","CENTER_NAME":"EARTH","DECAY_DATE":null,"ARG_OF_PERICENTER":"64.3520","MEAN_ELEMENT_THEORY":"SGP4","REF_FRAME":"TEME","RA_OF_ASC_NODE":"149.5709","EPHEMERIS_TYPE":"0","BSTAR":"0.00003971100000","LAUNCH_DATE":"2020-09-03","MEAN_ANOMALY":"295.7659","OBJECT_NAME":"STARLINK-1666","MEAN_MOTION_DOT":"0.00000310","MEAN_MOTION":"15.06393480","MEAN_MOTION_DDOT":"0.0000000000000","SITE":"AFETR","APOAPSIS":"548.510","NORAD_CAT_ID":"46357","TIME_SYSTEM":"UTC","PERIOD":"95.593","REV_AT_EPOCH":"10624","TLE_LINE1":"1 46357U 20062AJ  22212.52994072  .00000310  00000-0  39711-4 0  9991","FILE":"3526219","COUNTRY_CODE":"US","RCS_SIZE":"LARGE","PERIAPSIS":"545.957","ELEMENT_SET_NO":"999"},{"REV_AT_EPOCH":"10584","TIME_SYSTEM":"UTC","PERIOD":"95.592","SITE":"AFETR","APOAPSIS":"548.903","NORAD_CAT_ID":"46358","ELEMENT_SET_NO":"999","PERIAPSIS":"545.555","FILE":"3526413","RCS_SIZE":"LARGE","COUNTRY_CODE":"US","TLE_LINE1":"1 46358U 20062AK  22212.90774339  .00000887  00000-0  78475-4 0  9995","MEAN_MOTION_DOT":"0.00000887","BSTAR":"0.00007847500000","LAUNCH_DATE":"2020-09-03","OBJECT_NAME":"STARLINK-1690","MEAN_ANOMALY":"299.6626","RA_OF_ASC_NODE":"167.8810","EPHEMERIS_TYPE":"0","MEAN_MOTION_DDOT":"0.0000000000000","MEAN_MOTION":"15.06395042","OBJECT_TYPE":"PAYLOAD","MEAN_ELEMENT_THEORY":"SGP4","REF_FRAME":"TEME","ARG_OF_PERICENTER":"60.4604","DECAY_DATE":null,"INCLINATION":"53.0560","CENTER_NAME":"EARTH","EPOCH":"2022-07-31T21:47:09.028896","GP_ID":"209294434","CLASSIFICATION_TYPE":"U","OBJECT_ID":"2020-062AK","ECCENTRICITY":"0.00024170","SEMIMAJOR_AXIS":"6925.364","TLE_LINE2":"2 46358  53.0560 167.8810 0002417  60.4604 299.6626 15.06395042105845"},{"OBJECT_TYPE":"PAYLOAD","DECAY_DATE":null,"CENTER_NAME":"EARTH","INCLINATION":"53.0554","REF_FRAME":"TEME","MEAN_ELEMENT_THEORY":"SGP4","ARG_OF_PERICENTER":"59.9978","OBJECT_ID":"2020-062AL","GP_ID":"209262625","CLASSIFICATION_TYPE":"U","EPOCH":"2022-07-31T11:45:22.856832","ECCENTRICITY":"0.00017770","SEMIMAJOR_AXIS":"6925.347","TLE_LINE2":"2 46359  53.0554 124.7739 0001777  59.9978 300.1187 15.06400444106402","PERIOD":"95.592","TIME_SYSTEM":"UTC","NORAD_CAT_ID":"46359","SITE":"AFETR","APOAPSIS":"548.443","REV_AT_EPOCH":"10640","COUNTRY_CODE":"US","RCS_SIZE":"LARGE","FILE":"3526169","TLE_LINE1":"1 46359U 20062AL  22212.48984788 -.00000133  00000-0  99666-5 0  9991","ELEMENT_SET_NO":"999","PERIAPSIS":"545.982","MEAN_ANOMALY":"300.1187","OBJECT_NAME":"STARLINK-1707","BSTAR":"0.00000996660000","LAUNCH_DATE":"2020-09-03","RA_OF_ASC_NODE":"124.7739","EPHEMERIS_TYPE":"0","MEAN_MOTION_DOT":"-0.00000133","MEAN_MOTION_DDOT":"0.0000000000000","MEAN_MOTION":"15.06400444"},{"ARG_OF_PERICENTER":"74.7713","REF_FRAME":"TEME","MEAN_ELEMENT_THEORY":"SGP4","CENTER_NAME":"EARTH","INCLINATION":"53.0553","DECAY_DATE":null,"OBJECT_TYPE":"PAYLOAD","SEMIMAJOR_AXIS":"6925.264","TLE_LINE2":"2 46360  53.0553 123.4790 0001610  74.7713 285.3453 15.06427698106459","ECCENTRICITY":"0.00016100","CLASSIFICATION_TYPE":"U","GP_ID":"209292940","EPOCH":"2022-07-31T18:39:22.366080","OBJECT_ID":"2020-062AM","PERIAPSIS":"546.014","ELEMENT_SET_NO":"999","TLE_LINE1":"1 46360U 20062AM  22212.77734220 -.00004851  00000-0 -30674-3 0  9993","COUNTRY_CODE":"US","RCS_SIZE":"LARGE","FILE":"3526413","REV_AT_EPOCH":"10645","NORAD_CAT_ID":"46360","APOAPSIS":"548.244","SITE":"AFETR","PERIOD":"95.590","TIME_SYSTEM":"UTC","MEAN_MOTION":"15.06427698","MEAN_MOTION_DDOT":"0.0000000000000","MEAN_MOTION_DOT":"-0.00004851","EPHEMERIS_TYPE":"0","RA_OF_ASC_NODE":"123.4790","MEAN_ANOMALY":"285.3453","OBJECT_NAME":"STARLINK-1713","LAUNCH_DATE":"2020-09-03","BSTAR":"-0.00030674000000"},{"REV_AT_EPOCH":"10640","PERIOD":"95.593","TIME_SYSTEM":"UTC","NORAD_CAT_ID":"46361","SITE":"AFETR","APOAPSIS":"548.265","ELEMENT_SET_NO":"999","PERIAPSIS":"546.200","RCS_SIZE":"LARGE","COUNTRY_CODE":"US","FILE":"3526169","TLE_LINE1":"1 46361U 20062AN  22212.48153194  .00000644  00000-0  62111-4 0  9993","MEAN_MOTION_DOT":"0.00000644","OBJECT_NAME":"STARLINK-1722","MEAN_ANOMALY":"279.1244","LAUNCH_DATE":"2020-09-03","BSTAR":"0.00006211100000","RA_OF_ASC_NODE":"124.7813","EPHEMERIS_TYPE":"0","MEAN_MOTION_DDOT":"0.0000000000000","MEAN_MOTION":"15.06393768","OBJECT_TYPE":"PAYLOAD","REF_FRAME":"TEME","MEAN_ELEMENT_THEORY":"SGP4","ARG_OF_PERICENTER":"80.9913","DECAY_DATE":null,"CENTER_NAME":"EARTH","INCLINATION":"53.0539","CLASSIFICATION_TYPE":"U","GP_ID":"209263627","EPOCH":"2022-07-31T11:33:24.359616","OBJECT_ID":"2020-062AN","ECCENTRICITY":"0.00014910","TLE_LINE2":"2 46361  53.0539 124.7813 0001491  80.9913 279.1244 15.06393768106406","SEMIMAJOR_AXIS":"6925.368"},{"REV_AT_EPOCH":"10645","TIME_SYSTEM":"UTC","PERIOD":"95.593","APOAPSIS":"548.602","SITE":"AFETR","NORAD_CAT_ID":"46362","ELEMENT_SET_NO":"999","PERIAPSIS":"545.884","FILE":"3526413","COUNTRY_CODE":"US","RCS_SIZE":"LARGE","TLE_LINE1":"1 46362U 20062AP  22212.79209661  .00000466  00000-0  50207-4 0  9994","MEAN_MOTION_DOT":"0.00000466","BSTAR":"0.00005020700000","LAUNCH_DATE":"2020-09-03","MEAN_ANOMALY":"291.9989","OBJECT_NAME":"STARLINK-1726","EPHEMERIS_TYPE":"0","RA_OF_ASC_NODE":"123.4092","MEAN_MOTION_DDOT":"0.0000000000000","MEAN_MOTION":"15.06390382","OBJECT_TYPE":"PAYLOAD","MEAN_ELEMENT_THEORY":"SGP4","REF_FRAME":"TEME","ARG_OF_PERICENTER":"68.1208","DECAY_DATE":null,"INCLINATION":"53.0550","CENTER_NAME":"EARTH","GP_ID":"209293937","EPOCH":"2022-07-31T19:00:37.147104","CLASSIFICATION_TYPE":"U","OBJECT_ID":"2020-062AP","ECCENTRICITY":"0.00019620","SEMIMAJOR_AXIS":"6925.378","TLE_LINE2":"2 46362  53.0550 123.4092 0001962  68.1208 291.9989 15.06390382106455"},{"PERIAPSIS":"545.859","ELEMENT_SET_NO":"999","TLE_LINE1":"1 46363U 20062AQ  22212.85012331 -.00000483  00000-0 -13515-4 0  9990","RCS_SIZE":"LARGE","COUNTRY_CODE":"US","FILE":"3526413","REV_AT_EPOCH":"10646","NORAD_CAT_ID":"46363","SITE":"AFETR","APOAPSIS":"548.598","PERIOD":"95.592","TIME_SYSTEM":"UTC","MEAN_MOTION":"15.06395144","MEAN_MOTION_DDOT":"0.0000000000000","MEAN_MOTION_DOT":"-0.00000483","EPHEMERIS_TYPE":"0","RA_OF_ASC_NODE":"123.1212","MEAN_ANOMALY":"300.9200","OBJECT_NAME":"STARLINK-1739","LAUNCH_DATE":"2020-09-03","BSTAR":"-0.00001351500000","ARG_OF_PERICENTER":"59.1984","REF_FRAME":"TEME","MEAN_ELEMENT_THEORY":"SGP4","CENTER_NAME":"EARTH","INCLINATION":"53.0538","DECAY_DATE":null,"OBJECT_TYPE":"PAYLOAD","SEMIMAJOR_AXIS":"6925.363","TLE_LINE2":"2 46363  53.0538 123.1212 0001978  59.1984 300.9200 15.06395144106460","ECCENTRICITY":"0.00019780","GP_ID":"209293190","EPOCH":"2022-07-31T20:24:10.653984","CLASSIFICATION_TYPE":"U","OBJECT_ID":"2020-062AQ"},{"EPOCH":"2022-07-31T18:52:45.012576","GP_ID":"209293440","CLASSIFICATION_TYPE":"U","OBJECT_ID":"2020-062AR","ECCENTRICITY":"0.00014660","TLE_LINE2":"2 46364  53.0549 103.9204 0001466 115.3036 244.8105 15.06390323106728","SEMIMAJOR_AXIS":"6925.378","OBJECT_TYPE":"PAYLOAD","REF_FRAME":"TEME","MEAN_ELEMENT_THEORY":"SGP4","ARG_OF_PERICENTER":"115.3036","DECAY_DATE":null,"CENTER_NAME":"EARTH","INCLINATION":"53.0549","MEAN_MOTION_DOT":"-0.00000302","MEAN_ANOMALY":"244.8105","OBJECT_NAME":"STARLINK-1763","LAUNCH_DATE":"2020-09-03","BSTAR":"-0.00000140590000","RA_OF_ASC_NODE":"103.9204","EPHEMERIS_TYPE":"0","MEAN_MOTION_DDOT":"0.0000000000000","MEAN_MOTION":"15.06390323","REV_AT_EPOCH":"10672","PERIOD":"95.593","TIME_SYSTEM":"UTC","NORAD_CAT_ID":"46364","APOAPSIS":"548.258","SITE":"AFETR","ELEMENT_SET_NO":"999","PERIAPSIS":"546.228","COUNTRY_CODE":"US","RCS_SIZE":"LARGE","FILE":"3526413","TLE_LINE1":"1 46364U 20062AR  22212.78663209 -.00000302  00000-0 -14059-5 0  9994"}];
